{"id":"37775","noradId":"37775","name":"ASTRA 1N","line1":"1 37775U 11041A   26165.62125124  .00000126  00000+0  00000+0 0  9996","line2":"2 37775   0.0919  43.6224 0005983  50.1815  51.9648  1.00270245 44503","kind":"satellite","owner":"Commercial GEO","country":"SES","countryCode":"SES","objectType":"PAYLOAD","intlDesignator":"2011-041A","launchDate":"2011-08-06","rcs":"LARGE","rcsM2":7.9433,"periodMinutes":1436.13,"inclinationDeg":0.09,"apogeeKm":35812,"perigeeKm":35762,"source":"offline","sourceUrl":"https://celestrak.org/NORAD/elements/gp.php?GROUP=geo&FORMAT=tle","tleEpochUtc":"2026-06-14T14:54:36.107Z","orbitClass":"GEO"},{"id":"37776","noradId":"37776","name":"BSAT-3C (JCSAT-110R)","line1":"1 37776U 11041B   26165.62938641 -.00000344  00000+0  00000+0 0  9996","line2":"2 37776   0.0163   4.8714 0000025 246.9388 347.6544  1.00271488 50440","kind":"satellite","owner":"Japan (JAXA)","country":"Japan (JAXA)","countryCode":"JPN","objectType":"PAYLOAD","intlDesignator":"2011-041B","launchDate":"2011-08-06","rcs":"LARGE","rcsM2":23.5886,"periodMinutes":1436.08,"inclinationDeg":0.02,"apogeeKm":35787,"perigeeKm":35786,"source":"offline","sourceUrl":"https://celestrak.org/NORAD/elements/gp.php?GROUP=geo&FORMAT=tle","tleEpochUtc":"2026-06-14T15:06:18.985Z","orbitClass":"GEO"},{"id":"37779","noradId":"37779","name":"PAKSAT-1R","line1":"1 37779U 11042A   26165.55366542  .00000160  00000+0  00000+0 0  9992","line2":"2 37779   0.6820  84.6174 0002960 349.8067  65.8486  1.00277209 54458","kind":"satellite","owner":"PAKI","country":"PAKI","countryCode":"PAKI","objectType":"PAYLOAD","intlDesignator":"2011-042A","launchDate":"2011-08-11","rcs":"LARGE","rcsM2":14.6852,"periodMinutes":1436.03,"inclinationDeg":0.68,"apogeeKm":35798,"perigeeKm":35773,"source":"offline","sourceUrl":"https://celestrak.org/NORAD/elements/gp.php?GROUP=geo&FORMAT=tle","tleEpochUtc":"2026-06-14T13:17:16.692Z","orbitClass":"GEO"},{"id":"37809","noradId":"37809","name":"SES-2","line1":"1 37809U 11049A   26165.60019113 -.00000189  00000+0  00000+0 0  9990","line2":"2 37809   0.0579 104.0200 0002611 338.9167 309.0327  1.00270752 53932","kind":"satellite","owner":"Commercial GEO","country":"SES","countryCode":"SES","objectType":"PAYLOAD","intlDesignator":"2011-049A","launchDate":"2011-09-21","rcs":"LARGE","rcsM2":9.3468,"periodMinutes":1436.11,"inclinationDeg":0.06,"apogeeKm":35798,"perigeeKm":35776,"source":"offline","sourceUrl":"https://celestrak.org/NORAD/elements/gp.php?GROUP=geo&FORMAT=tle","tleEpochUtc":"2026-06-14T14:24:16.513Z","orbitClass":"GEO"},{"id":"37810","noradId":"37810","name":"ARABSAT-5C","line1":"1 37810U 11049B   26165.62133791  .00000130  00000+0  00000+0 0  9998","line2":"2 37810   0.0501  11.0394 0003387  89.9308  45.6182  1.00270619 54015","kind":"satellite","owner":"AB","country":"AB","countryCode":"AB","objectType":"PAYLOAD","intlDesignator":"2011-049B","launchDate":"2011-09-21","rcs":"LARGE","rcsM2":11.148,"periodMinutes":1436.12,"inclinationDeg":0.05,"apogeeKm":35801,"perigeeKm":35773,"source":"offline","sourceUrl":"https://celestrak.org/NORAD/elements/gp.php?GROUP=geo&FORMAT=tle","tleEpochUtc":"2026-06-14T14:54:43.595Z","orbitClass":"GEO"},{"id":"37816","noradId":"37816","name":"EUTELSAT 7 WEST A","line1":"1 37816U 11051A   26165.40206584 -.00000053  00000+0  00000+0 0  9999","line2":"2 37816   0.0624   8.3641 0004010  87.1359 304.6244  1.00271095 53847","kind":"satellite","owner":"Commercial GEO","country":"EUTE","countryCode":"EUTE","objectType":"PAYLOAD","intlDesignator":"2011-051A","launchDate":"2011-09-24","rcs":"LARGE","rcsM2":15.8489,"periodMinutes":1436.11,"inclinationDeg":0.06,"apogeeKm":35804,"perigeeKm":35770,"source":"offline","sourceUrl":"https://celestrak.org/NORAD/elements/gp.php?GROUP=geo&FORMAT=tle","tleEpochUtc":"2026-06-14T09:38:58.488Z","orbitClass":"GEO"},{"id":"37826","noradId":"37826","name":"QUETZSAT 1","line1":"1 37826U 11054A   26165.53087198 -.00000234  00000+0  00000+0 0  9996","line2":"2 37826   0.0173  27.5772 0002496  57.9566 291.4164  1.00270946 49849","kind":"satellite","owner":"MEX","country":"MEX","countryCode":"MEX","objectType":"PAYLOAD","intlDesignator":"2011-054A","launchDate":"2011-09-29","rcs":"LARGE","rcsM2":219.4788,"periodMinutes":1436.1,"inclinationDeg":0.02,"apogeeKm":35797,"perigeeKm":35776,"source":"offline","sourceUrl":"https://celestrak.org/NORAD/elements/gp.php?GROUP=geo&FORMAT=tle","tleEpochUtc":"2026-06-14T12:44:27.339Z","orbitClass":"GEO"},{"id":"37834","noradId":"37834","name":"INTELSAT 18 (IS-18)","line1":"1 37834U 11056A   26165.43918064  .00000061  00000+0  00000+0 0  9998","line2":"2 37834   0.0172 293.8107 0001646 143.5188 163.5143  1.00273358 53789","kind":"satellite","owner":"Commercial GEO","country":"ITSO","countryCode":"ITSO","objectType":"PAYLOAD","intlDesignator":"2011-056A","launchDate":"2011-10-05","rcs":"LARGE","rcsM2":37.7529,"periodMinutes":1436.1,"inclinationDeg":0.02,"apogeeKm":35795,"perigeeKm":35778,"source":"offline","sourceUrl":"https://celestrak.org/NORAD/elements/gp.php?GROUP=geo&FORMAT=tle","tleEpochUtc":"2026-06-14T10:32:25.207Z","orbitClass":"GEO"},{"id":"37836","noradId":"37836","name":"EUTELSAT 16A","line1":"1 37836U 11057A   26165.62055789  .00000111  00000+0  00000+0 0  9994","line2":"2 37836   0.0447  13.4242 0005971  73.1086  55.7792  1.00273296  7313","kind":"satellite","owner":"Commercial GEO","country":"EUTE","countryCode":"EUTE","objectType":"PAYLOAD","intlDesignator":"2011-057A","launchDate":"2011-10-07","rcs":"LARGE","rcsM2":7.6593,"periodMinutes":1436.08,"inclinationDeg":0.04,"apogeeKm":35811,"perigeeKm":35761,"source":"offline","sourceUrl":"https://celestrak.org/NORAD/elements/gp.php?GROUP=geo&FORMAT=tle","tleEpochUtc":"2026-06-14T14:53:36.201Z","orbitClass":"GEO"},{"id":"37843","noradId":"37843","name":"VIASAT-1","line1":"1 37843U 11059A   26165.59464444 -.00000017  00000+0  00000+0 0  9998","line2":"2 37843   0.0170 332.1783 0002062 106.4885 283.1949  1.00270169 47298","kind":"satellite","owner":"United States","country":"United States","countryCode":"US","objectType":"PAYLOAD","intlDesignator":"2011-059A","launchDate":"2011-10-19","rcs":"LARGE","rcsM2":3.9811,"periodMinutes":1436.07,"inclinationDeg":0.02,"apogeeKm":35795,"perigeeKm":35777,"source":"offline","sourceUrl":"https://celestrak.org/NORAD/elements/gp.php?GROUP=geo&FORMAT=tle","tleEpochUtc":"2026-06-14T14:16:17.279Z","orbitClass":"GEO"},{"id":"37933","noradId":"37933","name":"ASIASAT 7","line1":"1 37933U 11069A   26165.64860785 -.00000327  00000+0  00000+0 0  9997","line2":"2 37933   0.0253  70.4395 0001214 344.1543 187.3607  1.00272888 44834","kind":"satellite","owner":"AC","country":"AC","countryCode":"AC","objectType":"PAYLOAD","intlDesignator":"2011-069A","launchDate":"2011-11-25","rcs":"LARGE","rcsM2":45.0715,"periodMinutes":1436.07,"inclinationDeg":0.02,"apogeeKm":35791,"perigeeKm":35781,"source":"offline","sourceUrl":"https://celestrak.org/NORAD/elements/gp.php?GROUP=geo&FORMAT=tle","tleEpochUtc":"2026-06-14T15:33:59.718Z","orbitClass":"GEO"},{"id":"37948","noradId":"37948","name":"BEIDOU-2 IGSO-5","line1":"1 37948U 11073A   26165.63274774 -.00000164  00000+0  00000+0 0  9993","line2":"2 37948  47.6831 271.5780 0113870 221.6189  89.2706  1.00273198 53103","kind":"satellite","owner":"China","country":"China (CNSA)","countryCode":"PRC","objectType":"PAYLOAD","intlDesignator":"2011-073A","launchDate":"2011-12-01","rcs":"LARGE","rcsM2":12.5893,"periodMinutes":1436.07,"inclinationDeg":47.69,"apogeeKm":36266,"perigeeKm":35306,"source":"offline","sourceUrl":"https://celestrak.org/NORAD/elements/gp.php?GROUP=geo&FORMAT=tle","tleEpochUtc":"2026-06-14T15:11:09.404Z","orbitClass":"GEO"},{"id":"37951","noradId":"37951","name":"LUCH-5A","line1":"1 37951U 11074B   26165.53100439 -.00000050  00000+0  00000+0 0  9997","line2":"2 37951   8.7472  73.8464 0002188  25.8030 161.2970  1.00269856 53027","kind":"satellite","owner":"Russia","country":"Russia","countryCode":"CIS","objectType":"PAYLOAD","intlDesignator":"2011-074B","launchDate":"2011-12-11","rcs":"LARGE","rcsM2":25.1189,"periodMinutes":1436.13,"inclinationDeg":8.74,"apogeeKm":35796,"perigeeKm":35778,"source":"offline","sourceUrl":"https://celestrak.org/NORAD/elements/gp.php?GROUP=geo&FORMAT=tle","tleEpochUtc":"2026-06-14T12:44:38.779Z","orbitClass":"GEO"},{"id":"38014","noradId":"38014","name":"NIGCOMSAT 1R","line1":"1 38014U 11077A   26165.62824784  .00000151  00000+0  00000+0 0  9998","line2":"2 38014   0.0457 133.7632 0002338 213.4006 184.4487  1.00274160 52937","kind":"satellite","owner":"NIG","country":"NIG","countryCode":"NIG","objectType":"PAYLOAD","intlDesignator":"2011-077A","launchDate":"2011-12-19","rcs":"LARGE","rcsM2":18.4944,"periodMinutes":1436.07,"inclinationDeg":0.05,"apogeeKm":35796,"perigeeKm":35776,"source":"offline","sourceUrl":"https://celestrak.org/NORAD/elements/gp.php?GROUP=geo&FORMAT=tle","tleEpochUtc":"2026-06-14T15:04:40.613Z","orbitClass":"GEO"},{"id":"38070","noradId":"38070","name":"WGS F4 (USA 233)","line1":"1 38070U 12003A   26165.56353632  .00000000  00000+0  00000+0 0  9995","line2":"2 38070   0.0239  11.2421 0000804 271.9394 270.9624  1.00269280 44121","kind":"satellite","owner":"United States","country":"United States","countryCode":"US","objectType":"PAYLOAD","intlDesignator":"2012-003A","launchDate":"2012-01-20","rcs":"LARGE","rcsM2":15.8583,"periodMinutes":1436.12,"inclinationDeg":0.02,"apogeeKm":35790,"perigeeKm":35784,"source":"offline","sourceUrl":"https://celestrak.org/NORAD/elements/gp.php?GROUP=geo&FORMAT=tle","tleEpochUtc":"2026-06-14T13:31:29.538Z","orbitClass":"GEO"},{"id":"38087","noradId":"38087","name":"SES-4","line1":"1 38087U 12007A   26165.61293120 -.00000162  00000+0  00000+0 0  9998","line2":"2 38087   0.0234  29.9102 0002663  63.1958   8.4601  1.00269714 52207","kind":"satellite","owner":"Commercial GEO","country":"SES","countryCode":"SES","objectType":"PAYLOAD","intlDesignator":"2012-007A","launchDate":"2012-02-14","rcs":"LARGE","rcsM2":63.3469,"periodMinutes":1436.1,"inclinationDeg":0.02,"apogeeKm":35798,"perigeeKm":35776,"source":"offline","sourceUrl":"https://celestrak.org/NORAD/elements/gp.php?GROUP=geo&FORMAT=tle","tleEpochUtc":"2026-06-14T14:42:37.255Z","orbitClass":"GEO"},{"id":"38091","noradId":"38091","name":"BEIDOU-2 G5","line1":"1 38091U 12008A   26165.62905690  .00000061  00000+0  00000+0 0  9994","line2":"2 38091   3.5662  69.7111 0009139 273.0836 205.2449  1.00271128 52343","kind":"satellite","owner":"China","country":"China (CNSA)","countryCode":"PRC","objectType":"PAYLOAD","intlDesignator":"2012-008A","launchDate":"2012-02-24","rcs":"LARGE","rcsM2":10.1705,"periodMinutes":1436.11,"inclinationDeg":3.56,"apogeeKm":35825,"perigeeKm":35748,"source":"offline","sourceUrl":"https://celestrak.org/NORAD/elements/gp.php?GROUP=geo&FORMAT=tle","tleEpochUtc":"2026-06-14T15:05:50.516Z","orbitClass":"GEO"},{"id":"38093","noradId":"38093","name":"MUOS-1","line1":"1 38093U 12009A   26165.59759112 -.00000125  00000+0  00000+0 0  9991","line2":"2 38093   5.4710  47.1576 0058696   1.6469 329.2287  1.00270251 52415","kind":"satellite","owner":"United States","country":"United States","countryCode":"US","objectType":"PAYLOAD","intlDesignator":"2012-009A","launchDate":"2012-02-24","rcs":"LARGE","rcsM2":39.8107,"periodMinutes":1436.12,"inclinationDeg":5.47,"apogeeKm":36035,"perigeeKm":35539,"source":"offline","sourceUrl":"https://celestrak.org/NORAD/elements/gp.php?GROUP=geo&FORMAT=tle","tleEpochUtc":"2026-06-14T14:20:31.872Z","orbitClass":"GEO"},{"id":"38098","noradId":"38098","name":"INTELSAT 22 (IS-22)","line1":"1 38098U 12011A   26165.55453046  .00000000  00000+0  00000+0 0  9993","line2":"2 38098   0.0398  52.0363 0001592  46.2017  76.3269  1.00271252  7163","kind":"satellite","owner":"Commercial GEO","country":"ITSO","countryCode":"ITSO","objectType":"PAYLOAD","intlDesignator":"2012-011A","launchDate":"2012-03-25","rcs":"SMALL","rcsM2":0.003,"periodMinutes":1436.11,"inclinationDeg":0.04,"apogeeKm":35793,"perigeeKm":35780,"source":"offline","sourceUrl":"https://celestrak.org/NORAD/elements/gp.php?GROUP=geo&FORMAT=tle","tleEpochUtc":"2026-06-14T13:18:31.431Z","orbitClass":"GEO"},{"id":"38107","noradId":"38107","name":"APSTAR-7","line1":"1 38107U 12013A   26165.56129212  .00000000  00000+0  00000+0 0  9992","line2":"2 38107   0.0220   2.0109 0002534  92.3594  87.0454  1.00271323 51781","kind":"satellite","owner":"China (CNSA)","country":"China (CNSA)","countryCode":"PRC","objectType":"PAYLOAD","intlDesignator":"2012-013A","launchDate":"2012-03-31","rcs":"SMALL","rcsM2":0.003,"periodMinutes":1436.11,"inclinationDeg":0.02,"apogeeKm":35798,"perigeeKm":35776,"source":"offline","sourceUrl":"https://celestrak.org/NORAD/elements/gp.php?GROUP=geo&FORMAT=tle","tleEpochUtc":"2026-06-14T13:28:15.639Z","orbitClass":"GEO"},{"id":"38245","noradId":"38245","name":"YAHSAT 1B","line1":"1 38245U 12016A   26165.55557209  .00000133  00000+0  00000+0 0  9995","line2":"2 38245   0.0913  90.6405 0002230  15.8543  43.9574  1.00273912 45583","kind":"satellite","owner":"UAE","country":"UAE","countryCode":"UAE","objectType":"PAYLOAD","intlDesignator":"2012-016A","launchDate":"2012-04-23","rcs":"LARGE","rcsM2":10,"periodMinutes":1436.11,"inclinationDeg":0.09,"apogeeKm":35797,"perigeeKm":35777,"source":"offline","sourceUrl":"https://celestrak.org/NORAD/elements/gp.php?GROUP=geo&FORMAT=tle","tleEpochUtc":"2026-06-14T13:20:01.428Z","orbitClass":"GEO"},{"id":"38254","noradId":"38254","name":"AEHF-2 (USA 235)","line1":"1 38254U 12019A   26165.04378089 -.00000132  00000+0  00000+0 0  9999","line2":"2 38254   6.6438  57.5122 0002381  16.4466 187.6027  1.00270003  6958","kind":"satellite","owner":"United States","country":"United States","countryCode":"US","objectType":"PAYLOAD","intlDesignator":"2012-019A","launchDate":"2012-05-04","rcs":"LARGE","rcsM2":11.32,"periodMinutes":1436.12,"inclinationDeg":6.64,"apogeeKm":35797,"perigeeKm":35777,"source":"offline","sourceUrl":"https://celestrak.org/NORAD/elements/gp.php?GROUP=geo&FORMAT=tle","tleEpochUtc":"2026-06-14T01:03:02.668Z","orbitClass":"GEO"},{"id":"38331","noradId":"38331","name":"JCSAT-13","line1":"1 38331U 12023A   26165.65566259 -.00000350  00000+0  00000+0 0  9997","line2":"2 38331   0.0174   1.6933 0002989 109.5273 151.7721  1.00269729 51511","kind":"satellite","owner":"Japan (JAXA)","country":"Japan (JAXA)","countryCode":"JPN","objectType":"PAYLOAD","intlDesignator":"2012-023A","launchDate":"2012-05-15","rcs":"LARGE","rcsM2":39.8107,"periodMinutes":1436.12,"inclinationDeg":0.02,"apogeeKm":35800,"perigeeKm":35774,"source":"offline","sourceUrl":"https://celestrak.org/NORAD/elements/gp.php?GROUP=geo&FORMAT=tle","tleEpochUtc":"2026-06-14T15:44:09.247Z","orbitClass":"GEO"},{"id":"38332","noradId":"38332","name":"VINASAT-2","line1":"1 38332U 12023B   26165.66030552 -.00000322  00000+0  00000+0 0  9990","line2":"2 38332   0.0158   9.2000 0002081  83.5795 179.7410  1.00271595 46632","kind":"satellite","owner":"VTNM","country":"VTNM","countryCode":"VTNM","objectType":"PAYLOAD","intlDesignator":"2012-023B","launchDate":"2012-05-15","rcs":"LARGE","rcsM2":26.482,"periodMinutes":1436.09,"inclinationDeg":0.01,"apogeeKm":35795,"perigeeKm":35778,"source":"offline","sourceUrl":"https://celestrak.org/NORAD/elements/gp.php?GROUP=geo&FORMAT=tle","tleEpochUtc":"2026-06-14T15:50:50.396Z","orbitClass":"GEO"},{"id":"38342","noradId":"38342","name":"NIMIQ 6","line1":"1 38342U 12026A   26165.59932447 -.00000167  00000+0  00000+0 0  9997","line2":"2 38342   0.0215 298.5013 0002432 144.8231 304.2279  1.00270507 50387","kind":"satellite","owner":"CA","country":"CA","countryCode":"CA","objectType":"PAYLOAD","intlDesignator":"2012-026A","launchDate":"2012-05-17","rcs":"LARGE","rcsM2":14.093,"periodMinutes":1436.11,"inclinationDeg":0.02,"apogeeKm":35797,"perigeeKm":35777,"source":"offline","sourceUrl":"https://celestrak.org/NORAD/elements/gp.php?GROUP=geo&FORMAT=tle","tleEpochUtc":"2026-06-14T14:23:01.634Z","orbitClass":"GEO"},{"id":"38352","noradId":"38352","name":"ZHONGXING-2A","line1":"1 38352U 12028A   26165.63687259 -.00000287  00000+0  00000+0 0  9996","line2":"2 38352   1.4465  83.9223 0003766  44.9191 101.6147  1.00271174 51278","kind":"satellite","owner":"China (CNSA)","country":"China (CNSA)","countryCode":"PRC","objectType":"PAYLOAD","intlDesignator":"2012-028A","launchDate":"2012-05-26","rcs":"LARGE","rcsM2":19.9526,"periodMinutes":1436.1,"inclinationDeg":1.44,"apogeeKm":35803,"perigeeKm":35771,"source":"offline","sourceUrl":"https://celestrak.org/NORAD/elements/gp.php?GROUP=geo&FORMAT=tle","tleEpochUtc":"2026-06-14T15:17:05.791Z","orbitClass":"GEO"},{"id":"38356","noradId":"38356","name":"INTELSAT 19 (IS-19)","line1":"1 38356U 12030A   26165.50770383 -.00000049  00000+0  00000+0 0  9996","line2":"2 38356   0.0173 339.3923 0002782 112.1310 160.0537  1.00270945 50429","kind":"satellite","owner":"Commercial GEO","country":"ITSO","countryCode":"ITSO","objectType":"PAYLOAD","intlDesignator":"2012-030A","launchDate":"2012-06-01","rcs":"LARGE","rcsM2":15.8188,"periodMinutes":1436.12,"inclinationDeg":0.02,"apogeeKm":35799,"perigeeKm":35775,"source":"offline","sourceUrl":"https://celestrak.org/NORAD/elements/gp.php?GROUP=geo&FORMAT=tle","tleEpochUtc":"2026-06-14T12:11:05.610Z","orbitClass":"GEO"},{"id":"38551","noradId":"38551","name":"ECHOSTAR 17","line1":"1 38551U 12035A   26165.50670015  .00000000  00000+0  00000+0 0  9995","line2":"2 38551   0.0260  10.3375 0002071  74.1447 253.6369  1.00271396 51030","kind":"satellite","owner":"United States","country":"United States","countryCode":"US","objectType":"PAYLOAD","intlDesignator":"2012-035A","launchDate":"2012-07-05","rcs":"LARGE","rcsM2":12.5893,"periodMinutes":1436.11,"inclinationDeg":0.03,"apogeeKm":35795,"perigeeKm":35779,"source":"offline","sourceUrl":"https://celestrak.org/NORAD/elements/gp.php?GROUP=geo&FORMAT=tle","tleEpochUtc":"2026-06-14T12:09:38.892Z","orbitClass":"GEO"},{"id":"38552","noradId":"38552","name":"METEOSAT-10 (MSG-3)","line1":"1 38552U 12035B   26165.33231080  .00000000  00000+0  00000+0 0  9992","line2":"2 38552   4.6648  61.0321 0001424 327.8422 353.7007  1.00276282 50823","kind":"satellite","owner":"EUME","country":"EUME","countryCode":"EUME","objectType":"PAYLOAD","intlDesignator":"2012-035B","launchDate":"2012-07-05","rcs":"LARGE","rcsM2":4.3946,"periodMinutes":1436.03,"inclinationDeg":4.66,"apogeeKm":35791,"perigeeKm":35779,"source":"offline","sourceUrl":"https://celestrak.org/NORAD/elements/gp.php?GROUP=geo&FORMAT=tle","tleEpochUtc":"2026-06-14T07:58:31.653Z","orbitClass":"GEO"},{"id":"38652","noradId":"38652","name":"SES-5","line1":"1 38652U 12036A   26165.61839123  .00000040  00000+0  00000+0 0  9991","line2":"2 38652   0.0487 313.3204 0001760 130.4477  46.7451  1.00271320 44439","kind":"satellite","owner":"Commercial GEO","country":"SES","countryCode":"SES","objectType":"PAYLOAD","intlDesignator":"2012-036A","launchDate":"2012-07-09","rcs":"LARGE","rcsM2":37.7081,"periodMinutes":1436.09,"inclinationDeg":0.05,"apogeeKm":35795,"perigeeKm":35779,"source":"offline","sourceUrl":"https://celestrak.org/NORAD/elements/gp.php?GROUP=geo&FORMAT=tle","tleEpochUtc":"2026-06-14T14:50:29.002Z","orbitClass":"GEO"},{"id":"38740","noradId":"38740","name":"INTELSAT 20 (IS-20)","line1":"1 38740U 12043A   26165.55964544 -.00000017  00000+0  00000+0 0  9991","line2":"2 38740   0.0050  74.1082 0001668 102.7764 355.9580  1.00269538 50722","kind":"satellite","owner":"Commercial GEO","country":"ITSO","countryCode":"ITSO","objectType":"PAYLOAD","intlDesignator":"2012-043A","launchDate":"2012-08-02","rcs":"LARGE","rcsM2":1.2308,"periodMinutes":1436.1,"inclinationDeg":0.02,"apogeeKm":35796,"perigeeKm":35778,"source":"offline","sourceUrl":"https://celestrak.org/NORAD/elements/gp.php?GROUP=geo&FORMAT=tle","tleEpochUtc":"2026-06-14T13:25:53.366Z","orbitClass":"GEO"},{"id":"38741","noradId":"38741","name":"HYLAS 2","line1":"1 38741U 12043B   26165.53173865 -.00000252  00000+0  00000+0 0  9999","line2":"2 38741   2.4204  81.0993 0002393  26.1965 274.3971  1.00270279 50740","kind":"satellite","owner":"United Kingdom","country":"United Kingdom","countryCode":"UK","objectType":"PAYLOAD","intlDesignator":"2012-043B","launchDate":"2012-08-02","rcs":"LARGE","rcsM2":5.0119,"periodMinutes":1436.11,"inclinationDeg":2.42,"apogeeKm":35797,"perigeeKm":35777,"source":"offline","sourceUrl":"https://celestrak.org/NORAD/elements/gp.php?GROUP=geo&FORMAT=tle","tleEpochUtc":"2026-06-14T12:45:42.219Z","orbitClass":"GEO"}