OBJECT_NAME,OBJECT_ID,EPOCH,MEAN_MOTION,ECCENTRICITY,INCLINATION,RA_OF_ASC_NODE,ARG_OF_PERICENTER,MEAN_ANOMALY,EPHEMERIS_TYPE,CLASSIFICATION_TYPE,NORAD_CAT_ID,ELEMENT_SET_NO,REV_AT_EPOCH,BSTAR,MEAN_MOTION_DOT,MEAN_MOTION_DDOT
ASTRA 1N,2011-041A,2026-06-14T14:54:36.107136,1.00270245,.0005983,0.0919,43.6224,50.1815,51.9648,0,U,37775,999,4450,0,.126E-5,0
BSAT-3C (JCSAT-110R),2011-041B,2026-06-14T15:06:18.985824,1.00271488,.00000253,0.0163,4.8714,246.9388,347.6544,0,U,37776,999,5044,0,-.344E-5,0
PAKSAT-1R,2011-042A,2026-06-14T13:17:16.692288,1.00277209,.00029608,0.6820,84.6174,349.8067,65.8486,0,U,37779,999,5445,0,.16E-5,0
SES-2,2011-049A,2026-06-14T14:24:16.513632,1.00270752,.00026113,0.0579,104.0200,338.9167,309.0327,0,U,37809,999,5393,0,-.189E-5,0
ARABSAT-5C,2011-049B,2026-06-14T14:54:43.595424,1.00270619,.00033871,0.0501,11.0394,89.9308,45.6182,0,U,37810,999,5401,0,.13E-5,0
EUTELSAT 7 WEST A,2011-051A,2026-06-14T09:38:58.488576,1.00271095,.00040101,0.0624,8.3641,87.1359,304.6244,0,U,37816,999,5384,0,-.53E-6,0
QUETZSAT 1,2011-054A,2026-06-14T12:44:27.339072,1.00270946,.00024966,0.0173,27.5772,57.9566,291.4164,0,U,37826,999,4984,0,-.234E-5,0
INTELSAT 18 (IS-18),2011-056A,2026-06-14T10:32:25.207296,1.00273358,.00016469,0.0172,293.8107,143.5188,163.5143,0,U,37834,999,5378,0,.61E-6,0
EUTELSAT 16A,2011-057A,2026-06-14T14:53:36.201696,1.00273296,.00059715,0.0447,13.4242,73.1086,55.7792,0,U,37836,999,731,0,.111E-5,0
VIASAT-1,2011-059A,2026-06-14T14:16:17.279616,1.00270169,.00020625,0.0170,332.1783,106.4885,283.1949,0,U,37843,999,4729,0,-.17E-6,0
ASIASAT 7,2011-069A,2026-06-14T15:33:59.718240,1.00272888,.00012141,0.0253,70.4395,344.1543,187.3607,0,U,37933,999,4483,0,-.327E-5,0
BEIDOU-2 IGSO-5,2011-073A,2026-06-14T15:11:09.404736,1.00273198,.01138704,47.6831,271.5780,221.6189,89.2706,0,U,37948,999,5310,0,-.164E-5,0
LUCH-5A,2011-074B,2026-06-14T12:44:38.779296,1.00269856,.00021883,8.7472,73.8464,25.8030,161.2970,0,U,37951,999,5302,0,-.5E-6,0
NIGCOMSAT 1R,2011-077A,2026-06-14T15:04:40.613376,1.00274160,.00023384,0.0457,133.7632,213.4006,184.4487,0,U,38014,999,5293,0,.151E-5,0
WGS F4 (USA 233),2012-003A,2026-06-14T13:31:29.538048,1.00269280,.00008049,0.0239,11.2421,271.9394,270.9624,0,U,38070,999,4412,0,0,0
SES-4,2012-007A,2026-06-14T14:42:37.255680,1.00269714,.00026635,0.0234,29.9102,63.1958,8.4601,0,U,38087,999,5220,0,-.162E-5,0
BEIDOU-2 G5,2012-008A,2026-06-14T15:05:50.516160,1.00271128,.00091394,3.5662,69.7111,273.0836,205.2449,0,U,38091,999,5234,0,.61E-6,0
MUOS-1,2012-009A,2026-06-14T14:20:31.872768,1.00270251,.00586963,5.4710,47.1576,1.6469,329.2287,0,U,38093,999,5241,0,-.125E-5,0
INTELSAT 22 (IS-22),2012-011A,2026-06-14T13:18:31.431744,1.00271252,.00015922,0.0398,52.0363,46.2017,76.3269,0,U,38098,999,716,0,0,0
APSTAR-7,2012-013A,2026-06-14T13:28:15.639168,1.00271323,.00025341,0.0220,2.0109,92.3594,87.0454,0,U,38107,999,5178,0,0,0
YAHSAT 1B,2012-016A,2026-06-14T13:20:01.428576,1.00273912,.00022304,0.0913,90.6405,15.8543,43.9574,0,U,38245,999,4558,0,.133E-5,0
AEHF-2 (USA 235),2012-019A,2026-06-14T01:03:02.668896,1.00270003,.00023816,6.6438,57.5122,16.4466,187.6027,0,U,38254,999,695,0,-.132E-5,0
JCSAT-13,2012-023A,2026-06-14T15:44:09.247776,1.00269729,.00029899,0.0174,1.6933,109.5273,151.7721,0,U,38331,999,5151,0,-.35E-5,0
VINASAT-2,2012-023B,2026-06-14T15:50:50.396928,1.00271595,.00020813,0.0158,9.2000,83.5795,179.7410,0,U,38332,999,4663,0,-.322E-5,0
NIMIQ 6,2012-026A,2026-06-14T14:23:01.634208,1.00270507,.00024328,0.0215,298.5013,144.8231,304.2279,0,U,38342,999,5038,0,-.167E-5,0
ZHONGXING-2A,2012-028A,2026-06-14T15:17:05.791776,1.00271174,.00037667,1.4465,83.9223,44.9191,101.6147,0,U,38352,999,5127,0,-.287E-5,0
INTELSAT 19 (IS-19),2012-030A,2026-06-14T12:11:05.610912,1.00270945,.00027826,0.0173,339.3923,112.1310,160.0537,0,U,38356,999,5042,0,-.49E-6,0
ECHOSTAR 17,2012-035A,2026-06-14T12:09:38.892960,1.00271396,.00020716,0.0260,10.3375,74.1447,253.6369,0,U,38551,999,5103,0,0,0
METEOSAT-10 (MSG-3),2012-035B,2026-06-14T07:58:31.653120,1.00276282,.00014244,4.6648,61.0321,327.8422,353.7007,0,U,38552,999,5082,0,0,0
SES-5,2012-036A,2026-06-14T14:50:29.002272,1.00271320,.00017608,0.0487,313.3204,130.4477,46.7451,0,U,38652,999,4443,0,.4E-6,0
INTELSAT 20 (IS-20),2012-043A,2026-06-14T13:25:53.366016,1.00269538,.00016689,0.0050,74.1082,102.7764,355.9580,0,U,38740,999,5072,0,-.17E-6,0
HYLAS 2,2012-043B,2026-06-14T12:45:42.219360,1.00270279,.0002393,2.4204,81.0993,26.1965,274.3971,0,U,38741,999,5074,0,-.252E-5,0
